IRIDIUM 116             
1 43072U 17083C   24109.50513300  .00000304  00000+0  10160-3 0  9995
2 43072  86.3913 292.0324 0001933  89.4543 270.6875 14.34221393330989
IRIDIUM 130             
1 43073U 17083D   24109.47343247  .00000308  00000+0  10300-3 0  9993
2 43073  86.3921 292.2446 0002214  87.4447 272.7002 14.34219399330922
IRIDIUM 151             
1 43074U 17083E   24109.86666816  .00000324  00000+0  10879-3 0  9996
2 43074  86.3916 291.9210 0002105 102.1797 257.9635 14.34220181331002
IRIDIUM 134             
1 43075U 17083F   24109.55587949  .00000323  00000+0  10814-3 0  9990
2 43075  86.3915 292.0484 0002172  85.5421 274.6022 14.34219937330922
IRIDIUM 137             
1 43076U 17083G   24109.49879919  .00000317  00000+0  10618-3 0  9990
2 43076  86.3918 292.1493 0001705  98.1433 261.9956 14.34219514330983
IRIDIUM 141             
1 43077U 17083H   24109.56221235  .00000051  00000+0  11215-4 0  9991
2 43077  86.3912 291.9978 0002187  93.4181 266.7265 14.34217495330999
IRIDIUM 153             
1 43078U 17083J   24109.51438995  .00000208  00000+0  67122-4 0  9992
2 43078  86.3939 260.4491 0002569  99.7853 260.3633 14.34219165332097
IRIDIUM 131             
1 43079U 17083K   24109.54954224  .00000312  00000+0  10432-3 0  9991
2 43079  86.3918 292.1368 0002021  94.6477 265.4950 14.34219484330921
